{"type": "FeatureCollection", "features": [ {"type": "Feature", "properties": {"norad_id": 66805, "name": "STARLINK-36049", "group": "last-30-days", "lat": 0.30207516352348024, "lon": 28.82587243038314, "alt_km": 371.3514365339488, "timestamp": "2025-12-19T18:58:40.328240+00:00", "meta": {"OBJECT_NAME": "STARLINK-36049", "OBJECT_ID": "2025-278Q", "EPOCH": "2025-12-19T06:00:02.000160", "MEAN_MOTION": 15.67852706, "ECCENTRICITY": 0.00018702, "INCLINATION": 42.9993, "RA_OF_ASC_NODE": 212.3908, "ARG_OF_PERICENTER": 268.1565, "MEAN_ANOMALY": 97.896, "EPHEMERIS_TYPE": 0, "CLASSIFICATION_TYPE": "U", "NORAD_CAT_ID": 66805, "ELEMENT_SET_NO": 999, "REV_AT_EPOCH": 400, "BSTAR": -0.01939726, "MEAN_MOTION_DOT": -0.01944488, "MEAN_MOTION_DDOT": 0}, "tle": {"line1": "1 66805U 25278Q   25353.25002315 -.01944488  00000+0 -19397-1 0  9994", "line2": "2 66805  42.9993 212.3908 0001870 268.1565  97.8960 15.67852706  4007"}}, "geometry": {"type": "Point", "coordinates": [28.82587243038314, 0.30207516352348024]}}, {"type": "Feature", "properties": {"norad_id": 66806, "name": "STARLINK-36069", "group": "last-30-days", "lat": 1.6105881430341802, "lon": 27.42589680505378, "alt_km": 371.2615325182687, "timestamp": "2025-12-19T18:58:40.328250+00:00", "meta": {"OBJECT_NAME": "STARLINK-36069", "OBJECT_ID": "2025-278R", "EPOCH": "2025-12-19T06:00:02.000160", "MEAN_MOTION": 15.67854926, "ECCENTRICITY": 0.00018441, "INCLINATION": 42.9992, "RA_OF_ASC_NODE": 212.3958, "ARG_OF_PERICENTER": 268.6675, "MEAN_ANOMALY": 95.4684, "EPHEMERIS_TYPE": 0, "CLASSIFICATION_TYPE": "U", "NORAD_CAT_ID": 66806, "ELEMENT_SET_NO": 999, "REV_AT_EPOCH": 379, "BSTAR": -0.019463293, "MEAN_MOTION_DOT": -0.01950471, "MEAN_MOTION_DDOT": 0}, "tle": {"line1": "1 66806U 25278R   25353.25002315 -.01950471  00000+0 -19463-1 0  9998", "line2": "2 66806  42.9992 212.3958 0001844 268.6675  95.4684 15.67854926  3798"}}, "geometry": {"type": "Point", "coordinates": [27.42589680505378, 1.6105881430341802]}}, {"type": "Feature", "properties": {"norad_id": 66807, "name": "STARLINK-36000", "group": "last-30-days", "lat": -2.311439719255019, "lon": 31.62365748229437, "alt_km": 371.5454228321605, "timestamp": "2025-12-19T18:58:40.328260+00:00", "meta": {"OBJECT_NAME": "STARLINK-36000", "OBJECT_ID": "2025-278S", "EPOCH": "2025-12-19T06:00:02.000160", "MEAN_MOTION": 15.67851043, "ECCENTRICITY": 0.00018607, "INCLINATION": 42.9992, "RA_OF_ASC_NODE": 212.3817, "ARG_OF_PERICENTER": 267.1423, "MEAN_ANOMALY": 102.7449, "EPHEMERIS_TYPE": 0, "CLASSIFICATION_TYPE": "U", "NORAD_CAT_ID": 66807, "ELEMENT_SET_NO": 999, "REV_AT_EPOCH": 406, "BSTAR": -0.019372618, "MEAN_MOTION_DOT": -0.0194218, "MEAN_MOTION_DDOT": 0}, "tle": {"line1": "1 66807U 25278S   25353.25002315 -.01942180  00000+0 -19373-1 0  9997", "line2": "2 66807  42.9992 212.3817 0001860 267.1423 102.7449 15.67851043  4065"}}, "geometry": {"type": "Point", "coordinates": [31.62365748229437, -2.311439719255019]}}, {"type": "Feature", "properties": {"norad_id": 66808, "name": "STARLINK-36071", "group": "last-30-days", "lat": -3.6151313752161367, "lon": 33.023785072127524, "alt_km": 371.699587817825, "timestamp": "2025-12-19T18:58:40.328270+00:00", "meta": {"OBJECT_NAME": "STARLINK-36071", "OBJECT_ID": "2025-278T", "EPOCH": "2025-12-19T06:00:02.000160", "MEAN_MOTION": 15.67849405, "ECCENTRICITY": 0.00019481, "INCLINATION": 42.999, "RA_OF_ASC_NODE": 212.3767, "ARG_OF_PERICENTER": 268.6483, "MEAN_ANOMALY": 103.1569, "EPHEMERIS_TYPE": 0, "CLASSIFICATION_TYPE": "U", "NORAD_CAT_ID": 66808, "ELEMENT_SET_NO": 999, "REV_AT_EPOCH": 400, "BSTAR": -0.019360195, "MEAN_MOTION_DOT": -0.01941034, "MEAN_MOTION_DDOT": 0}, "tle": {"line1": "1 66808U 25278T   25353.25002315 -.01941034  00000+0 -19360-1 0  9991", "line2": "2 66808  42.9990 212.3767 0001948 268.6483 103.1569 15.67849405  4008"}}, "geometry": {"type": "Point", "coordinates": [33.023785072127524, -3.6151313752161367]}}, {"type": "Feature", "properties": {"norad_id": 66809, "name": "STARLINK-35979", "group": "last-30-days", "lat": -7.51317499495036, "lon": 37.25799986367415, "alt_km": 372.09405066436193, "timestamp": "2025-12-19T18:58:40.328280+00:00", "meta": {"OBJECT_NAME": "STARLINK-35979", "OBJECT_ID": "2025-278U", "EPOCH": "2025-12-19T06:00:02.000160", "MEAN_MOTION": 15.67832396, "ECCENTRICITY": 0.00020194, "INCLINATION": 42.9992, "RA_OF_ASC_NODE": 212.3619, "ARG_OF_PERICENTER": 272.1078, "MEAN_ANOMALY": 105.4611, "EPHEMERIS_TYPE": 0, "CLASSIFICATION_TYPE": "U", "NORAD_CAT_ID": 66809, "ELEMENT_SET_NO": 999, "REV_AT_EPOCH": 400, "BSTAR": -0.019179642, "MEAN_MOTION_DOT": -0.01923877, "MEAN_MOTION_DDOT": 0}, "tle": {"line1": "1 66809U 25278U   25353.25002315 -.01923877  00000+0 -19180-1 0  9997", "line2": "2 66809  42.9992 212.3619 0002019 272.1078 105.4611 15.67832396  4001"}}, "geometry": {"type": "Point", "coordinates": [37.25799986367415, -7.51317499495036]}}, {"type": "Feature", "properties": {"norad_id": 66810, "name": "STARLINK-36046", "group": "last-30-days", "lat": -4.918757531818484, "lon": 34.430596569800976, "alt_km": 371.81762191206417, "timestamp": "2025-12-19T18:58:40.328291+00:00", "meta": {"OBJECT_NAME": "STARLINK-36046", "OBJECT_ID": "2025-278V", "EPOCH": "2025-12-19T06:00:02.000160", "MEAN_MOTION": 15.67846206, "ECCENTRICITY": 0.00019274, "INCLINATION": 42.9993, "RA_OF_ASC_NODE": 212.3721, "ARG_OF_PERICENTER": 269.2274, "MEAN_ANOMALY": 104.4971, "EPHEMERIS_TYPE": 0, "CLASSIFICATION_TYPE": "U", "NORAD_CAT_ID": 66810, "ELEMENT_SET_NO": 999, "REV_AT_EPOCH": 377, "BSTAR": -0.019315607, "MEAN_MOTION_DOT": -0.01936839, "MEAN_MOTION_DDOT": 0}, "tle": {"line1": "1 66810U 25278V   25353.25002315 -.01936839  00000+0 -19316-1 0  9992", "line2": "2 66810  42.9993 212.3721 0001927 269.2274 104.4971 15.67846206  3776"}}, "geometry": {"type": "Point", "coordinates": [34.430596569800976, -4.918757531818484]}}, {"type": "Feature", "properties": {"norad_id": 66811, "name": "STARLINK-36045", "group": "last-30-days", "lat": -6.213257199504959, "lon": 35.83564412545873, "alt_km": 372.01066328986417, "timestamp": "2025-12-19T18:58:40.328303+00:00", "meta": {"OBJECT_NAME": "STARLINK-36045", "OBJECT_ID": "2025-278W", "EPOCH": "2025-12-19T06:00:02.000160", "MEAN_MOTION": 15.67862053, "ECCENTRICITY": 0.00015852, "INCLINATION": 42.9989, "RA_OF_ASC_NODE": 212.3668, "ARG_OF_PERICENTER": 269.3364, "MEAN_ANOMALY": 106.3015, "EPHEMERIS_TYPE": 0, "CLASSIFICATION_TYPE": "U", "NORAD_CAT_ID": 66811, "ELEMENT_SET_NO": 999, "REV_AT_EPOCH": 400, "BSTAR": -0.01965026, "MEAN_MOTION_DOT": -0.01967299, "MEAN_MOTION_DDOT": 0}, "tle": {"line1": "1 66811U 25278W   25353.25002315 -.01967299  00000+0 -19650-1 0  9998", "line2": "2 66811  42.9989 212.3668 0001585 269.3364 106.3015 15.67862053  4008"}}, "geometry": {"type": "Point", "coordinates": [35.83564412545873, -6.213257199504959]}}, {"type": "Feature", "properties": {"norad_id": 66812, "name": "STARLINK-36054", "group": "last-30-days", "lat": -8.804879220144558, "lon": 38.6852260416557, "alt_km": 372.1646897650626, "timestamp": "2025-12-19T18:58:40.328315+00:00", "meta": {"OBJECT_NAME": "STARLINK-36054", "OBJECT_ID": "2025-278X", "EPOCH": "2025-12-19T06:00:02.000160", "MEAN_MOTION": 15.6785106, "ECCENTRICITY": 0.00018607, "INCLINATION": 42.9993, "RA_OF_ASC_NODE": 212.3573, "ARG_OF_PERICENTER": 270.5312, "MEAN_ANOMALY": 108.942, "EPHEMERIS_TYPE": 0, "CLASSIFICATION_TYPE": "U", "NORAD_CAT_ID": 66812, "ELEMENT_SET_NO": 999, "REV_AT_EPOCH": 400, "BSTAR": -0.019386302, "MEAN_MOTION_DOT": -0.01943394, "MEAN_MOTION_DDOT": 0}, "tle": {"line1": "1 66812U 25278X   25353.25002315 -.01943394  00000+0 -19386-1 0  9995", "line2": "2 66812  42.9993 212.3573 0001860 270.5312 108.9420 15.67851060  4006"}}, "geometry": {"type": "Point", "coordinates": [38.6852260416557, -8.804879220144558]}}, {"type": "Feature", "properties": {"norad_id": 66813, "name": "STARLINK-36042", "group": "last-30-days", "lat": -10.094585062640563, "lon": 40.12673029548037, "alt_km": 372.1583025212094, "timestamp": "2025-12-19T18:58:40.328325+00:00", "meta": {"OBJECT_NAME": "STARLINK-36042", "OBJECT_ID": "2025-278Y", "EPOCH": "2025-12-19T06:00:02.000160", "MEAN_MOTION": 15.67842415, "ECCENTRICITY": 0.00018408, "INCLINATION": 42.9992, "RA_OF_ASC_NODE": 212.353, "ARG_OF_PERICENTER": 268.4093, "MEAN_ANOMALY": 112.9829, "EPHEMERIS_TYPE": 0, "CLASSIFICATION_TYPE": "U", "NORAD_CAT_ID": 66813, "ELEMENT_SET_NO": 999, "REV_AT_EPOCH": 400, "BSTAR": -0.019210496, "MEAN_MOTION_DOT": -0.01927181, "MEAN_MOTION_DDOT": 0}, "tle": {"line1": "1 66813U 25278Y   25353.25002315 -.01927181  00000+0 -19210-1 0  9998", "line2": "2 66813  42.9992 212.3530 0001840 268.4093 112.9829 15.67842415  4001"}}, "geometry": {"type": "Point", "coordinates": [40.12673029548037, -10.094585062640563]}}, {"type": "Feature", "properties": {"norad_id": 66814, "name": "STARLINK-35984", "group": "last-30-days", "lat": -17.637296522894722, "lon": 49.03137157344494, "alt_km": 372.7409200892562, "timestamp": "2025-12-19T18:58:40.328335+00:00", "meta": {"OBJECT_NAME": "STARLINK-35984", "OBJECT_ID": "2025-278Z", "EPOCH": "2025-12-19T06:00:02.000160", "MEAN_MOTION": 15.67856097, "ECCENTRICITY": 0.00017951, "INCLINATION": 42.9988, "RA_OF_ASC_NODE": 212.3218, "ARG_OF_PERICENTER": 270.5524, "MEAN_ANOMALY": 122.3389, "EPHEMERIS_TYPE": 0, "CLASSIFICATION_TYPE": "U", "NORAD_CAT_ID": 66814, "ELEMENT_SET_NO": 999, "REV_AT_EPOCH": 409, "BSTAR": -0.019489026, "MEAN_MOTION_DOT": -0.01952793, "MEAN_MOTION_DDOT": 0}, "tle": {"line1": "1 66814U 25278Z   25353.25002315 -.01952793  00000+0 -19489-1 0  9994", "line2": "2 66814  42.9988 212.3218 0001795 270.5524 122.3389 15.67856097  4098"}}, "geometry": {"type": "Point", "coordinates": [49.03137157344494, -17.637296522894722]}}]}